{
  "norad_id": 68722,
  "name": "STARLINK-37271",
  "history": [
    {
      "epoch": "2026-04-23T16:52:07.210272Z",
      "apogee_km": 312.4535726068634,
      "perigee_km": 310.96695474792887,
      "latitude_deg": 1.0297588528931537e-05,
      "longitude_deg": 90.39917156730387,
      "height_km": 311.9577585400523,
      "semi_major_axis_km": 6689.847263677396,
      "eccentricity": 0.00011111,
      "inclination_deg": 53.1594,
      "raan_deg": 195.1755,
      "arg_perigee_deg": 25.0361,
      "mean_anomaly_deg": 335.0718,
      "mean_motion_rev_day": 15.86640217
    }
  ]
}