STARLINK-37271          
1 68722U 26081Z   26113.70286123 -.00612623  00000+0 -25242-2 0  9992
2 68722  53.1594 195.1755 0001111  25.0361 335.0718 15.86640217  1499
